{"type": "FeatureCollection", "features": [{"type": "Feature", "properties": {"norad_id": 25590, "name": "COSMOS 2361", "group": "musson", "lat": 77.87605311249824, "lon": 9.581379620656902, "alt_km": 999.553058210272, "timestamp": "2025-12-25T22:42:17.281097+00:00", "meta": {"OBJECT_NAME": "COSMOS 2361", "OBJECT_ID": "1998-076A", "EPOCH": "2025-12-25T10:37:16.860000", "MEAN_MOTION": 13.73218874, "ECCENTRICITY": 0.0030332, "INCLINATION": 82.9345, "RA_OF_ASC_NODE": 334.6908, "ARG_OF_PERICENTER": 228.8467, "MEAN_ANOMALY": 243.9016, "EPHEMERIS_TYPE": 0, "CLASSIFICATION_TYPE": "U", "NORAD_CAT_ID": 25590, "ELEMENT_SET_NO": 999, "REV_AT_EPOCH": 35285, "BSTAR": 5.4406e-05, "MEAN_MOTION_DOT": 6.5e-07, "MEAN_MOTION_DDOT": 0}, "tle": {"line1": "1 25590U 98076A   25359.44255625  .00000065  00000+0  54406-4 0  9991", "line2": "2 25590  82.9345 334.6908 0030332 228.8467 243.9016 13.73218874352857"}}, "geometry": {"type": "Point", "coordinates": [9.581379620656902, 77.87605311249824]}}, {"type": "Feature", "properties": {"norad_id": 26818, "name": "COSMOS 2378", "group": "musson", "lat": -17.0153173001299, "lon": 172.1094383636003, "alt_km": 968.201438625324, "timestamp": "2025-12-25T22:42:17.281117+00:00", "meta": {"OBJECT_NAME": "COSMOS 2378", "OBJECT_ID": "2001-023A", "EPOCH": "2025-12-25T02:52:27.994944", "MEAN_MOTION": 13.7414296, "ECCENTRICITY": 0.00331845, "INCLINATION": 82.9272, "RA_OF_ASC_NODE": 350.5445, "ARG_OF_PERICENTER": 170.2004, "MEAN_ANOMALY": 261.4901, "EPHEMERIS_TYPE": 0, "CLASSIFICATION_TYPE": "U", "NORAD_CAT_ID": 26818, "ELEMENT_SET_NO": 999, "REV_AT_EPOCH": 23093, "BSTAR": 3.3956905e-05, "MEAN_MOTION_DOT": 4.7e-07, "MEAN_MOTION_DDOT": 0}, "tle": {"line1": "1 26818U 01023A   25359.11976846  .00000047  00000+0  33957-4 0  9998", "line2": "2 26818  82.9272 350.5445 0033184 170.2004 261.4901 13.74142960230933"}}, "geometry": {"type": "Point", "coordinates": [172.1094383636003, -17.0153173001299]}}, {"type": "Feature", "properties": {"norad_id": 27436, "name": "COSMOS 2389", "group": "musson", "lat": 82.57064800856548, "lon": 45.62137870026045, "alt_km": 960.3713044352098, "timestamp": "2025-12-25T22:42:17.281130+00:00", "meta": {"OBJECT_NAME": "COSMOS 2389", "OBJECT_ID": "2002-026A", "EPOCH": "2025-12-25T08:52:06.455424", "MEAN_MOTION": 13.75155997, "ECCENTRICITY": 0.0047068, "INCLINATION": 82.9513, "RA_OF_ASC_NODE": 297.6356, "ARG_OF_PERICENTER": 26.2532, "MEAN_ANOMALY": 93.125, "EPHEMERIS_TYPE": 0, "CLASSIFICATION_TYPE": "U", "NORAD_CAT_ID": 27436, "ELEMENT_SET_NO": 999, "REV_AT_EPOCH": 18322, "BSTAR": 6.7754e-05, "MEAN_MOTION_DOT": 8.1e-07, "MEAN_MOTION_DDOT": 0}, "tle": {"line1": "1 27436U 02026A   25359.36951916  .00000081  00000+0  67754-4 0  9997", "line2": "2 27436  82.9513 297.6356 0047068  26.2532  93.1250 13.75155997183223"}}, "geometry": {"type": "Point", "coordinates": [45.62137870026045, 82.57064800856548]}}, {"type": "Feature", "properties": {"norad_id": 27818, "name": "COSMOS 2398", "group": "musson", "lat": -82.36279021700645, "lon": -164.41622952425254, "alt_km": 1021.5129276010975, "timestamp": "2025-12-25T22:42:17.281142+00:00", "meta": {"OBJECT_NAME": "COSMOS 2398", "OBJECT_ID": "2003-023A", "EPOCH": "2025-12-25T17:56:47.855904", "MEAN_MOTION": 13.72387171, "ECCENTRICITY": 0.003269, "INCLINATION": 82.9482, "RA_OF_ASC_NODE": 263.113, "ARG_OF_PERICENTER": 77.1579, "MEAN_ANOMALY": 296.926, "EPHEMERIS_TYPE": 0, "CLASSIFICATION_TYPE": "U", "NORAD_CAT_ID": 27818, "ELEMENT_SET_NO": 999, "REV_AT_EPOCH": 12995, "BSTAR": 6.895e-05, "MEAN_MOTION_DOT": 7.9e-07, "MEAN_MOTION_DDOT": 0}, "tle": {"line1": "1 27818U 03023A   25359.74777611  .00000079  00000+0  68950-4 0  9995", "line2": "2 27818  82.9482 263.1130 0032690  77.1579 296.9260 13.72387171129953"}}, "geometry": {"type": "Point", "coordinates": [-164.41622952425254, -82.36279021700645]}}, {"type": "Feature", "properties": {"norad_id": 28380, "name": "COSMOS 2407", "group": "musson", "lat": -64.31999789264857, "lon": -171.77862920795158, "alt_km": 980.9870034926262, "timestamp": "2025-12-25T22:42:17.281153+00:00", "meta": {"OBJECT_NAME": "COSMOS 2407", "OBJECT_ID": "2004-028A", "EPOCH": "2025-12-25T16:22:25.250016", "MEAN_MOTION": 13.7631509, "ECCENTRICITY": 0.0039705, "INCLINATION": 82.9592, "RA_OF_ASC_NODE": 203.3098, "ARG_OF_PERICENTER": 19.4498, "MEAN_ANOMALY": 49.5089, "EPHEMERIS_TYPE": 0, "CLASSIFICATION_TYPE": "U", "NORAD_CAT_ID": 28380, "ELEMENT_SET_NO": 999, "REV_AT_EPOCH": 7601, "BSTAR": 3.6831e-05, "MEAN_MOTION_DOT": 5.1e-07, "MEAN_MOTION_DDOT": 0}, "tle": {"line1": "1 28380U 04028A   25359.68223669  .00000051  00000+0  36831-4 0  9991", "line2": "2 28380  82.9592 203.3098 0039705  19.4498  49.5089 13.76315090 76016"}}, "geometry": {"type": "Point", "coordinates": [-171.77862920795158, -64.31999789264857]}}, {"type": "Feature", "properties": {"norad_id": 28521, "name": "COSMOS 2414", "group": "musson", "lat": 28.194175002309606, "lon": 178.47756875507704, "alt_km": 926.4868916181686, "timestamp": "2025-12-25T22:42:17.281163+00:00", "meta": {"OBJECT_NAME": "COSMOS 2414", "OBJECT_ID": "2005-002A", "EPOCH": "2025-12-25T10:27:24.414336", "MEAN_MOTION": 13.87904583, "ECCENTRICITY": 0.0041426, "INCLINATION": 82.9488, "RA_OF_ASC_NODE": 175.0593, "ARG_OF_PERICENTER": 104.4935, "MEAN_ANOMALY": 256.083, "EPHEMERIS_TYPE": 0, "CLASSIFICATION_TYPE": "U", "NORAD_CAT_ID": 28521, "ELEMENT_SET_NO": 999, "REV_AT_EPOCH": 5971, "BSTAR": 4.7795e-05, "MEAN_MOTION_DOT": 7.3e-07, "MEAN_MOTION_DDOT": 0}, "tle": {"line1": "1 28521U 05002A   25359.43569924  .00000073  00000+0  47795-4 0  9996", "line2": "2 28521  82.9488 175.0593 0041426 104.4935 256.0830 13.87904583 59716"}}, "geometry": {"type": "Point", "coordinates": [178.47756875507704, 28.194175002309606]}}, {"type": "Feature", "properties": {"norad_id": 32052, "name": "COSMOS 2429", "group": "musson", "lat": -80.1229262172785, "lon": -71.46493417395318, "alt_km": 985.6789468092202, "timestamp": "2025-12-25T22:42:17.281174+00:00", "meta": {"OBJECT_NAME": "COSMOS 2429", "OBJECT_ID": "2007-038A", "EPOCH": "2025-12-25T10:52:56.318304", "MEAN_MOTION": 13.75150602, "ECCENTRICITY": 0.0038484, "INCLINATION": 82.9808, "RA_OF_ASC_NODE": 333.936, "ARG_OF_PERICENTER": 2.8321, "MEAN_ANOMALY": 357.3045, "EPHEMERIS_TYPE": 0, "CLASSIFICATION_TYPE": "U", "NORAD_CAT_ID": 32052, "ELEMENT_SET_NO": 999, "REV_AT_EPOCH": 91777, "BSTAR": 4.8879e-05, "MEAN_MOTION_DOT": 6.2e-07, "MEAN_MOTION_DDOT": 0}, "tle": {"line1": "1 32052U 07038A   25359.45342961  .00000062  00000+0  48879-4 0  9995", "line2": "2 32052  82.9808 333.9360 0038484   2.8321 357.3045 13.75150602917777"}}, "geometry": {"type": "Point", "coordinates": [-71.46493417395318, -80.1229262172785]}}, {"type": "Feature", "properties": {"norad_id": 35635, "name": "COSMOS 2454", "group": "musson", "lat": 4.340631236087981, "lon": -21.903866427199322, "alt_km": 941.9549418827992, "timestamp": "2025-12-25T22:42:17.281184+00:00", "meta": {"OBJECT_NAME": "COSMOS 2454", "OBJECT_ID": "2009-039A", "EPOCH": "2025-12-25T13:33:16.712064", "MEAN_MOTION": 13.89930287, "ECCENTRICITY": 0.0019974, "INCLINATION": 82.9558, "RA_OF_ASC_NODE": 158.9229, "ARG_OF_PERICENTER": 39.1408, "MEAN_ANOMALY": 29.5942, "EPHEMERIS_TYPE": 0, "CLASSIFICATION_TYPE": "U", "NORAD_CAT_ID": 35635, "ELEMENT_SET_NO": 999, "REV_AT_EPOCH": 83328, "BSTAR": 5.8633e-05, "MEAN_MOTION_DOT": 8.8e-07, "MEAN_MOTION_DDOT": 0}, "tle": {"line1": "1 35635U 09039A   25359.56477676  .00000088  00000+0  58633-4 0  9999", "line2": "2 35635  82.9558 158.9229 0019974  39.1408  29.5942 13.89930287833287"}}, "geometry": {"type": "Point", "coordinates": [-21.903866427199322, 4.340631236087981]}}, {"type": "Feature", "properties": {"norad_id": 36519, "name": "COSMOS 2463", "group": "musson", "lat": 66.62043946542805, "lon": 33.614952620562434, "alt_km": 1012.8167310659292, "timestamp": "2025-12-25T22:42:17.281195+00:00", "meta": {"OBJECT_NAME": "COSMOS 2463", "OBJECT_ID": "2010-017A", "EPOCH": "2025-12-25T14:11:33.904896", "MEAN_MOTION": 13.71650272, "ECCENTRICITY": 0.0034817, "INCLINATION": 82.9603, "RA_OF_ASC_NODE": 17.2678, "ARG_OF_PERICENTER": 251.0493, "MEAN_ANOMALY": 226.2748, "EPHEMERIS_TYPE": 0, "CLASSIFICATION_TYPE": "U", "NORAD_CAT_ID": 36519, "ELEMENT_SET_NO": 999, "REV_AT_EPOCH": 78413, "BSTAR": 3.5333e-05, "MEAN_MOTION_DOT": 4.7e-07, "MEAN_MOTION_DDOT": 0}, "tle": {"line1": "1 36519U 10017A   25359.59136464  .00000047  00000+0  35333-4 0  9996", "line2": "2 36519  82.9603  17.2678 0034817 251.0493 226.2748 13.71650272784130"}}, "geometry": {"type": "Point", "coordinates": [33.614952620562434, 66.62043946542805]}}]}